[{"OBJECT_NAME":"UTMN 2 (RS27S)","OBJECT_ID":"2023-091AP","EPOCH":"2026-03-09T23:09:07.917408","MEAN_MOTION":15.29495965,"ECCENTRICITY":0.00097379,"INCLINATION":97.5194,"RA_OF_ASC_NODE":134.949,"ARG_OF_PERICENTER":76.0788,"MEAN_ANOMALY":284.1534,"EPHEMERIS_TYPE":0,"CLASSIFICATION_TYPE":"U","NORAD_CAT_ID":57203,"ELEMENT_SET_NO":999,"REV_AT_EPOCH":14936,"BSTAR":0.00056135701,"MEAN_MOTION_DOT":0.00016013,"MEAN_MOTION_DDOT":0},{"OBJECT_NAME":"STARLINK-35061","OBJECT_ID":"2025-243Q","EPOCH":"2026-03-09T17:10:22.557504","MEAN_MOTION":15.30196379,"ECCENTRICITY":8.279e-5,"INCLINATION":53.1572,"RA_OF_ASC_NODE":245.424,"ARG_OF_PERICENTER":81.8584,"MEAN_ANOMALY":278.2511,"EPHEMERIS_TYPE":0,"CLASSIFICATION_TYPE":"U","NORAD_CAT_ID":66191,"ELEMENT_SET_NO":999,"REV_AT_EPOCH":2065,"BSTAR":0.00059072148,"MEAN_MOTION_DOT":0.00017175,"MEAN_MOTION_DDOT":0}]
